[
    {
        "OBJECT_NAME": "NAVSTAR 46 (USA 145)",
        "OBJECT_ID": "1999-055A",
        "EPOCH": "2026-06-19T18:13:00.038208",
        "MEAN_MOTION": 2.00562064,
        "ECCENTRICITY": 0.01066204,
        "INCLINATION": 51.4609,
        "RA_OF_ASC_NODE": 295.3562,
        "ARG_OF_PERICENTER": 175.7714,
        "MEAN_ANOMALY": 163.308,
        "EPHEMERIS_TYPE": 0,
        "CLASSIFICATION_TYPE": "U",
        "NORAD_CAT_ID": 25933,
        "ELEMENT_SET_NO": 999,
        "REV_AT_EPOCH": 19562,
        "BSTAR": 0,
        "MEAN_MOTION_DOT": -8.1e-07,
        "MEAN_MOTION_DDOT": 0
    },
    {
        "OBJECT_NAME": "NAVSTAR 48 (USA 151)",
        "OBJECT_ID": "2000-040A",
        "EPOCH": "2026-06-20T06:21:32.848992",
        "MEAN_MOTION": 2.00557702,
        "ECCENTRICITY": 0.0120997,
        "INCLINATION": 54.851,
        "RA_OF_ASC_NODE": 215.04,
        "ARG_OF_PERICENTER": 302.4995,
        "MEAN_ANOMALY": 43.5641,
        "EPHEMERIS_TYPE": 0,
        "CLASSIFICATION_TYPE": "U",
        "NORAD_CAT_ID": 26407,
        "ELEMENT_SET_NO": 999,
        "REV_AT_EPOCH": 19000,
        "BSTAR": 0,
        "MEAN_MOTION_DOT": 2.2e-07,
        "MEAN_MOTION_DDOT": 0
    },
    {
        "OBJECT_NAME": "NAVSTAR 49 (USA 154)",
        "OBJECT_ID": "2000-071A",
        "EPOCH": "2026-06-19T13:56:08.878848",
        "MEAN_MOTION": 2.00565343,
        "ECCENTRICITY": 0.0174268,
        "INCLINATION": 55.627,
        "RA_OF_ASC_NODE": 94.8598,
        "ARG_OF_PERICENTER": 266.7772,
        "MEAN_ANOMALY": 229.9724,
        "EPHEMERIS_TYPE": 0,
        "CLASSIFICATION_TYPE": "U",
        "NORAD_CAT_ID": 26605,
        "ELEMENT_SET_NO": 999,
        "REV_AT_EPOCH": 18756,
        "BSTAR": 0,
        "MEAN_MOTION_DOT": -1.1e-07,
        "MEAN_MOTION_DDOT": 0
    },
    {
        "OBJECT_NAME": "NAVSTAR 51 (USA 166)",
        "OBJECT_ID": "2003-005A",
        "EPOCH": "2026-06-20T04:32:37.203072",
        "MEAN_MOTION": 2.00560412,
        "ECCENTRICITY": 0.01479551,
        "INCLINATION": 54.8817,
        "RA_OF_ASC_NODE": 214.8496,
        "ARG_OF_PERICENTER": 53.0813,
        "MEAN_ANOMALY": 14.389,
        "EPHEMERIS_TYPE": 0,
        "CLASSIFICATION_TYPE": "U",
        "NORAD_CAT_ID": 27663,
        "ELEMENT_SET_NO": 999,
        "REV_AT_EPOCH": 17137,
        "BSTAR": 0,
        "MEAN_MOTION_DOT": 2.2e-07,
        "MEAN_MOTION_DDOT": 0
    },
    {
        "OBJECT_NAME": "NAVSTAR 53 (USA 175)",
        "OBJECT_ID": "2003-058A",
        "EPOCH": "2026-06-19T02:59:00.918816",
        "MEAN_MOTION": 1.92678421,
        "ECCENTRICITY": 0.00017399,
        "INCLINATION": 55.0282,
        "RA_OF_ASC_NODE": 23.1951,
        "ARG_OF_PERICENTER": 342.044,
        "MEAN_ANOMALY": 17.9953,
        "EPHEMERIS_TYPE": 0,
        "CLASSIFICATION_TYPE": "U",
        "NORAD_CAT_ID": 28129,
        "ELEMENT_SET_NO": 999,
        "REV_AT_EPOCH": 16450,
        "BSTAR": 0,
        "MEAN_MOTION_DOT": -9.8e-07,
        "MEAN_MOTION_DDOT": 0
    },
    {
        "OBJECT_NAME": "NAVSTAR 54 (USA 177)",
        "OBJECT_ID": "2004-009A",
        "EPOCH": "2026-06-20T09:35:38.069952",
        "MEAN_MOTION": 2.00554615,
        "ECCENTRICITY": 0.0116273,
        "INCLINATION": 54.8268,
        "RA_OF_ASC_NODE": 275.5574,
        "ARG_OF_PERICENTER": 173.2219,
        "MEAN_ANOMALY": 199.2524,
        "EPHEMERIS_TYPE": 0,
        "CLASSIFICATION_TYPE": "U",
        "NORAD_CAT_ID": 28190,
        "ELEMENT_SET_NO": 999,
        "REV_AT_EPOCH": 16301,
        "BSTAR": 0,
        "MEAN_MOTION_DOT": -6.6e-07,
        "MEAN_MOTION_DDOT": 0
    },
    {
        "OBJECT_NAME": "NAVSTAR 55 (USA 178)",
        "OBJECT_ID": "2004-023A",
        "EPOCH": "2026-06-20T09:17:13.513344",
        "MEAN_MOTION": 2.00557079,
        "ECCENTRICITY": 0.0159849,
        "INCLINATION": 54.8661,
        "RA_OF_ASC_NODE": 86.5822,
        "ARG_OF_PERICENTER": 302.0896,
        "MEAN_ANOMALY": 241.5084,
        "EPHEMERIS_TYPE": 0,
        "CLASSIFICATION_TYPE": "U",
        "NORAD_CAT_ID": 28361,
        "ELEMENT_SET_NO": 999,
        "REV_AT_EPOCH": 16110,
        "BSTAR": 0,
        "MEAN_MOTION_DOT": -3.2e-07,
        "MEAN_MOTION_DDOT": 0
    },
    {
        "OBJECT_NAME": "NAVSTAR 56 (USA 180)",
        "OBJECT_ID": "2004-045A",
        "EPOCH": "2026-06-20T08:06:11.280384",
        "MEAN_MOTION": 2.00556004,
        "ECCENTRICITY": 0.0169871,
        "INCLINATION": 55.1338,
        "RA_OF_ASC_NODE": 324.7691,
        "ARG_OF_PERICENTER": 316.4883,
        "MEAN_ANOMALY": 76.0859,
        "EPHEMERIS_TYPE": 0,
        "CLASSIFICATION_TYPE": "U",
        "NORAD_CAT_ID": 28474,
        "ELEMENT_SET_NO": 999,
        "REV_AT_EPOCH": 15849,
        "BSTAR": 0,
        "MEAN_MOTION_DOT": -9.3e-07,
        "MEAN_MOTION_DDOT": 0
    },
    {
        "OBJECT_NAME": "NAVSTAR 57 (USA 183)",
        "OBJECT_ID": "2005-038A",
        "EPOCH": "2026-06-20T07:49:42.592224",
        "MEAN_MOTION": 2.00565445,
        "ECCENTRICITY": 0.0127903,
        "INCLINATION": 54.8753,
        "RA_OF_ASC_NODE": 273.0507,
        "ARG_OF_PERICENTER": 296.1835,
        "MEAN_ANOMALY": 51.9478,
        "EPHEMERIS_TYPE": 0,
        "CLASSIFICATION_TYPE": "U",
        "NORAD_CAT_ID": 28874,
        "ELEMENT_SET_NO": 999,
        "REV_AT_EPOCH": 15189,
        "BSTAR": 0,
        "MEAN_MOTION_DOT": -6.2e-07,
        "MEAN_MOTION_DDOT": 0
    },
    {
        "OBJECT_NAME": "NAVSTAR 58 (USA 190)",
        "OBJECT_ID": "2006-042A",
        "EPOCH": "2026-06-20T02:56:54.830112",
        "MEAN_MOTION": 2.0056968,
        "ECCENTRICITY": 0.01065914,
        "INCLINATION": 54.7112,
        "RA_OF_ASC_NODE": 151.2224,
        "ARG_OF_PERICENTER": 54.4858,
        "MEAN_ANOMALY": 45.3479,
        "EPHEMERIS_TYPE": 0,
        "CLASSIFICATION_TYPE": "U",
        "NORAD_CAT_ID": 29486,
        "ELEMENT_SET_NO": 999,
        "REV_AT_EPOCH": 14445,
        "BSTAR": 0,
        "MEAN_MOTION_DOT": 6.5e-07,
        "MEAN_MOTION_DDOT": 0
    },
    {
        "OBJECT_NAME": "NAVSTAR 59 (USA 192)",
        "OBJECT_ID": "2006-052A",
        "EPOCH": "2026-06-19T21:52:21.555840",
        "MEAN_MOTION": 2.00558132,
        "ECCENTRICITY": 0.0084895,
        "INCLINATION": 54.9346,
        "RA_OF_ASC_NODE": 213.8981,
        "ARG_OF_PERICENTER": 90.814,
        "MEAN_ANOMALY": 270.2258,
        "EPHEMERIS_TYPE": 0,
        "CLASSIFICATION_TYPE": "U",
        "NORAD_CAT_ID": 29601,
        "ELEMENT_SET_NO": 999,
        "REV_AT_EPOCH": 14346,
        "BSTAR": 0,
        "MEAN_MOTION_DOT": 2.3e-07,
        "MEAN_MOTION_DDOT": 0
    },
    {
        "OBJECT_NAME": "NAVSTAR 60 (USA 196)",
        "OBJECT_ID": "2007-047A",
        "EPOCH": "2026-06-19T17:13:40.562976",
        "MEAN_MOTION": 2.00555058,
        "ECCENTRICITY": 0.0166853,
        "INCLINATION": 54.097,
        "RA_OF_ASC_NODE": 79.9613,
        "ARG_OF_PERICENTER": 87.4321,
        "MEAN_ANOMALY": 274.4926,
        "EPHEMERIS_TYPE": 0,
        "CLASSIFICATION_TYPE": "U",
        "NORAD_CAT_ID": 32260,
        "ELEMENT_SET_NO": 999,
        "REV_AT_EPOCH": 13686,
        "BSTAR": 0,
        "MEAN_MOTION_DOT": -3.9e-07,
        "MEAN_MOTION_DDOT": 0
    }
]